Name,Counts,lat,lon,address,country,new_name,Kommune,Region,ZipCode
Køn,6,56.15720795,10.211392604049607,"KØN, Domkirkepladsen, Latinerkvarteret, Midtbyen, Aarhus, Aarhus Kommune, Region Midtjylland, 8000, Danmark",Danmark,KØN,Aarhus Kommune,Region Midtjylland,8000
M/S Museet For Søfart,6,56.0389368,12.616268412598306,"M/S Museet for Søfart, Ny Kronborgvej, Helsingør, Helsingør Kommune, Region Hovedstaden, 3000, Danmark",Danmark,M/S Museet for Søfart,Helsingør Kommune,Region Hovedstaden,3000
Ribe Kunstmuseum,6,55.32922775,8.767589379743901,"Ribe Kunstmuseum, Sanct Nicolaj Gade, Ribe, Esbjerg Kommune, Region Syddanmark, 6760, Danmark",Danmark,Ribe Kunstmuseum,Esbjerg Kommune,Region Syddanmark,6760
Heart Herning Museum Of Contemporary Art,6,56.131799349999994,9.021837172764176,"HEART, Birk Centerpark, Birk, Herning Kommune, Region Midtjylland, 7400, Danmark",Danmark,HEART,Herning Kommune,Region Midtjylland,7400
Faaborg Museum,6,55.0944673,10.247718460714285,"Faaborg Museum for Fynsk Malerkunst, Grønnegade, Faaborg, Faaborg-Midtfyn Kommune, Region Syddanmark, 5600, Danmark",Danmark,Faaborg Museum for Fynsk Malerkunst,Faaborg-Midtfyn Kommune,Region Syddanmark,5600
Læsø Museum,6,57.2395068,10.990678423169907,"Læsø Saltsyderi, Hornfiskrønvej, Byrum, Læsø Kommune, Region Nordjylland, Danmark",Danmark,Læsø Saltsyderi,Læsø Kommune,Region Nordjylland,9940
Esbjerg Kunstmuseum,6,55.4642399,8.4505741,"Esbjerg Kunstmuseum, Havnegade, Rørkjær, Esbjerg, Esbjerg Kommune, Region Syddanmark, 6700, Danmark",Danmark,Esbjerg Kunstmuseum,Esbjerg Kommune,Region Syddanmark,6700
Rudersdal Museer,6,55.815997,12.539599,"5, Biblioteksalleen, Nærum, Rudersdal Kommune, Region Hovedstaden, 2850, Danmark",Danmark,,Rudersdal Kommune,Region Hovedstaden,2850
Louisiana Museum Of Modern Art,6,55.969351950000004,12.543157249937579,"Louisiana Museum of Modern Art, Louisevej, Gammel Humlebæk, Krogerup, Humlebæk, Fredensborg Kommune, Region Hovedstaden, 3050, Danmark",Danmark,Louisiana Museum of Modern Art,Fredensborg Kommune,Region Hovedstaden,3050
Limfjordsmuseet,6,56.96441875,9.240408897831816,"Limfjordsmuseet, Fischersgade, Løgstør, Vesthimmerlands Kommune, Region Nordjylland, 9670, Danmark",Danmark,Limfjordsmuseet,Vesthimmerlands Kommune,Region Nordjylland,9670
Lemvig Museum,6,56.54957845,8.301815355538409,"Lemvig Museum, Vestergade, Lemvig, Lemvig Kommune, Region Midtjylland, 7620, Danmark",Danmark,Lemvig Museum,Lemvig Kommune,Region Midtjylland,7620
Det Grønne Museum,6,56.4380894,10.3419651,"Det Grønne Museum, Randersvej, Norddjurs Kommune, Region Midtjylland, 8963, Danmark",Danmark,Det Grønne Museum,Norddjurs Kommune,Region Midtjylland,8963
Langelands Museum,6,54.9341834,10.717443142716983,"Langelands museum, Engdraget, Sommerlyst, Rudkøbing, Langeland Kommune, Region Syddanmark, 5900, Danmark",Danmark,Langelands museum,Langeland Kommune,Region Syddanmark,5900
Designmuseum Danmark,6,55.686374150000006,12.594407743890955,"Designmuseum Danmark, Bredgade, Frederiksstaden, Indre By, København, Københavns Kommune, Region Hovedstaden, 1265, Danmark",Danmark,Designmuseum Danmark,Københavns Kommune,Region Hovedstaden,1265
Den Hirschsprungske Samling,6,55.6899139,12.57748139097032,"Den Hirschsprungske Samling, Stockholmsgade, Østervold, Indre By, København, Københavns Kommune, Region Hovedstaden, 1307, Danmark",Danmark,Den Hirschsprungske Samling,Københavns Kommune,Region Hovedstaden,1307
Sorø Kunstmuseum,6,55.43277915,11.555497655872049,"Sorø Kunstmuseum, Storgade, Sorø, Sorø Kommune, Region Sjælland, 4180, Danmark",Danmark,Sorø Kunstmuseum,Sorø Kommune,Region Sjælland,4180
Køs Museum For Kunst I Det Offentlige Rum,6,55.45879105,12.183313546833428,"KØS Museum for kunst i det offentlige rum, Katekismusgade, Gammel Køge By, Køge, Køge Kommune, Region Sjælland, 4600, Danmark",Danmark,KØS Museum for kunst i det offentlige rum,Køge Kommune,Region Sjælland,4600
Randers Kunstmuseum,6,56.460458,10.040943,"2, Stemannsgade, Strømmen, Randers, Randers Kommune, Region Midtjylland, 8900, Danmark",Danmark,,Randers Kommune,Region Midtjylland,8900
Marstal Søfartsmuseum,6,54.854292,10.5211578,"Marstal Søfartsmuseum, Havnegade, Bondebyen, Marstal, Ærø Kommune, Region Syddanmark, 5960, Danmark",Danmark,Marstal Søfartsmuseum,Ærø Kommune,Region Syddanmark,5960
Danmarks Tekniske Museum,6,56.0221193,12.562480167427807,"Danmarks Tekniske Museum, Støberivej, Snekkersten, Helsingør Kommune, Region Hovedstaden, 3070, Danmark",Danmark,Danmarks Tekniske Museum,Helsingør Kommune,Region Hovedstaden,3070
Middelfart Museum,6,55.5062329,9.728231,"Middelfart Museum, Algade, Middelfart, Middelfart Kommune, Region Syddanmark, 5500, Danmark",Danmark,Middelfart Museum,Middelfart Kommune,Region Syddanmark,5500
Glud Museum,6,55.80673765,9.99329620929143,"Glud Museum, Gludvej, Over Glud, Glud, Hedensted Kommune, Region Midtjylland, Danmark",Danmark,Glud Museum,Hedensted Kommune,Region Midtjylland,7130
Give-Egnens Museum,6,55.84787145,9.252100454093611,"Give-Egnens Museum, Donneruplundvej, Give, Vejle Kommune, Region Syddanmark, 7323, Danmark",Danmark,Give-Egnens Museum,Vejle Kommune,Region Syddanmark,7323
Museum Mors,6,56.794546,8.853335,"9, Dueholmgade, Nykøbing Mors, Morsø Kommune, Region Nordjylland, 7900, Danmark",Danmark,,Morsø Kommune,Region Nordjylland,7900
Gammel Estrup Herregårdsmuseet,6,56.4379443,10.3444651,"Gammel Estrup Herregårdsmuseet Kiosk, Randersvej, Norddjurs Kommune, Region Midtjylland, 8963, Danmark",Danmark,Gammel Estrup Herregårdsmuseet Kiosk,Norddjurs Kommune,Region Midtjylland,8963
Museum Vestfyn,6,55.270537,9.890438,"19, Nordre Havnevej, Assens, Assens Kommune, Region Syddanmark, 5610, Danmark",Danmark,,Assens Kommune,Region Syddanmark,5610
Greve Museum,6,55.59093355,12.252255866374846,"Greve Museum, Bækgårdsvej, Greve, Greve Kommune, Region Sjælland, 2690, Danmark",Danmark,Greve Museum,Greve Kommune,Region Sjælland,2690
Furesø Museer,6,55.81566055131924,12.403042474041046,"Stavnsholtvej, Stavnsholt, Furesø Kommune, Region Hovedstaden, 3520, Danmark",Danmark,Stavnsholtvej,Furesø Kommune,Region Hovedstaden,3520
Fuglsang Kunstmuseum,6,54.7238612,11.799592751548081,"Fuglsang Kunstmuseum, Nystedvej, Guldborgsund Kommune, Region Sjælland, 4891, Danmark",Danmark,Fuglsang Kunstmuseum,Guldborgsund Kommune,Region Sjælland,4891
Museum Østjylland Randers,6,56.4604221,10.0407626,"Museum Østjylland, Stemannsgade, Strømmen, Randers, Randers Kommune, Region Midtjylland, 8900, Danmark",Danmark,Museum Østjylland,Randers Kommune,Region Midtjylland,8900
Museet På Sønderskov,6,55.4517544,9.037766943679397,"Museet på Sønderskov, Sønderskovgårdvej, Vejen Kommune, Region Syddanmark, 6650, Danmark",Danmark,Museet på Sønderskov,Vejen Kommune,Region Syddanmark,6650
Museet For Samtidskunst,6,55.64202105,12.081697711935172,"Museet for Samtidskunst, Domkirkepladsen, Sankt Agnes Huse, Roskilde, Roskilde Kommune, Region Sjælland, 4000, Danmark",Danmark,Museet for Samtidskunst,Roskilde Kommune,Region Sjælland,4000
Museerne I Fredericia,6,55.564843,9.744823,"10, Jernbanegade, Solbakken, Fredericia, Fredericia Kommune, Region Syddanmark, 7000, Danmark",Danmark,,Fredericia Kommune,Region Syddanmark,7000
Moesgård Museum,6,56.086355,10.2225218,"Moesgaard Museum, Moesgård Allé, Aarhus, Aarhus Kommune, Region Midtjylland, 8330, Danmark",Danmark,Moesgaard Museum,Aarhus Kommune,Region Midtjylland,8330
Nivaagaards Malerisamling,6,55.92715175,12.511002047354664,"Nivaagaards Malerisamling, Gammel Strandvej, Strandhuse, Nivå, Fredensborg Kommune, Region Hovedstaden, 2990, Danmark",Danmark,Nivaagaards Malerisamling,Fredensborg Kommune,Region Hovedstaden,2990
Ny Carlsberg Glyptotek,6,55.6725342,12.57176570891363,"Ny Carlsberg Glyptotek, Stoltenbergsgade, Postbyen, Kødbyen, København, Københavns Kommune, Region Hovedstaden, 1576, Danmark",Danmark,Ny Carlsberg Glyptotek,Københavns Kommune,Region Hovedstaden,1576
Dansk Jødisk Museum,6,55.6743653,12.5823025,"Dansk Jødisk Museum, Proviantpassagen, Gammelholm, Christianshavn, København, Københavns Kommune, Region Hovedstaden, 1219, Danmark",Danmark,Dansk Jødisk Museum,Københavns Kommune,Region Hovedstaden,1219
Den Gamle By Danmarks Købstadsmuseum,6,56.157963,10.19353,"2, Viborgvej, Aarhus, Aarhus Kommune, Region Midtjylland, 8000, Danmark",Danmark,,Aarhus Kommune,Region Midtjylland,8000
Statens Museum For Kunst,6,55.6886945,12.578372372490001,"Statens Museum for Kunst, Sølvgade, Østervold, Indre By, København, Københavns Kommune, Region Hovedstaden, 1307, Danmark",Danmark,Statens Museum for Kunst,Københavns Kommune,Region Hovedstaden,1307
Trapholt,6,55.499455499999996,9.53218255341881,"Trapholt Museet, Æblehaven, Strandhuse, Nørre Bjert, Kolding Kommune, Region Syddanmark, Danmark",Danmark,Trapholt Museet,Kolding Kommune,Region Syddanmark,6000
Bornholms Kunstmuseum,6,55.2234574,14.893797610949036,"Bornholms Kunstmuseum, Otto Bruuns Plads, Rø, Bornholms Regionskommune, Region Hovedstaden, Danmark",Danmark,Bornholms Kunstmuseum,Bornholms Regionskommune,Region Hovedstaden,3760
Vejlemuseerne,6,55.7140583,9.5308769,"Spinderihallerne Vejlemuseerne, Valdemarsgade, Uhrhøj, Vejle, Vejle Kommune, Region Syddanmark, 7100, Danmark",Danmark,Spinderihallerne Vejlemuseerne,Vejle Kommune,Region Syddanmark,7100
Vendsyssel Historiske Museum,6,57.4609726,9.982909401728055,"Vendsyssel Historiske Museum, Museumsgade, Klokager, Hjørring, Hjørring Kommune, Region Nordjylland, 9800, Danmark",Danmark,Vendsyssel Historiske Museum,Hjørring Kommune,Region Nordjylland,9800
Vendsyssel Kunstmuseum,6,57.460963199999995,9.987103145639537,"Vendsyssel Kunstmuseum, Kraghsvej, Klokager, Hjørring, Hjørring Kommune, Region Nordjylland, 9800, Danmark",Danmark,Vendsyssel Kunstmuseum,Hjørring Kommune,Region Nordjylland,9800
Vesthimmerlands Museum,6,56.80241665,9.521906300000001,"Vesthimmerlands Museum, Himmerlandsgade, Aars, Vesthimmerlands Kommune, Region Nordjylland, 9600, Danmark",Danmark,Vesthimmerlands Museum,Vesthimmerlands Kommune,Region Nordjylland,9600
Viborg Museum,6,56.450125,9.4083338,"Viborg Museum, Hjultorvet, Asmild, Viborg, Viborg Kommune, Region Midtjylland, 8800, Danmark",Danmark,Viborg Museum,Viborg Kommune,Region Midtjylland,8800
Vikingeskibsmuseet,6,55.650869549999996,12.081471739962394,"Vikingeskibsmuseet, Strandengen, Sankt Agnes Huse, Roskilde, Roskilde Kommune, Region Sjælland, 4000, Danmark",Danmark,Vikingeskibsmuseet,Roskilde Kommune,Region Sjælland,4000
J. F. Willumsens Museum,6,55.8449025,12.050555382988714,"Willumsens Museum, J. F. Willumsens Vej, Kristiansholm, Frederikssund, Frederikssund Kommune, Region Hovedstaden, 3600, Danmark",Danmark,Willumsens Museum,Frederikssund Kommune,Region Hovedstaden,3600
Aros Aarhus Kunstmuseum,6,56.15388765,10.199604580576775,"ARoS Kunstmuseum, Vester Allé, Midtbyen, Frederiksbjerg, Aarhus, Aarhus Kommune, Region Midtjylland, 8000, Danmark",Danmark,ARoS Kunstmuseum,Aarhus Kommune,Region Midtjylland,8000
Koldingshus,6,55.491281,9.474497,"1, Koldinghus, Søndervang, Kolding, Kolding Kommune, Region Syddanmark, 6000, Danmark",Danmark,,Kolding Kommune,Region Syddanmark,6000
Arken Museum For Moderne Kunst,6,55.6059133,12.3867647,"Arken, Cafe Museum for moderne kunst, Stenstien, Ishøj Kommune, Region Hovedstaden, 2665, Danmark",Danmark,"Arken, Cafe Museum for moderne kunst",Ishøj Kommune,Region Hovedstaden,2665
Arbejdermuseet,6,55.68480715,12.570404356856155,"Arbejdermuseet, Rømersgade, Nørrevold, Indre By, København, Københavns Kommune, Region Hovedstaden, 1360, Danmark",Danmark,Arbejdermuseet,Københavns Kommune,Region Hovedstaden,1360
Ærø Museum,6,54.8888877,10.4122798,"Ærø Museum, Brogade, Paradiset, Ærøskøbing, Ærø Kommune, Region Syddanmark, 5970, Danmark",Danmark,Ærø Museum,Ærø Kommune,Region Syddanmark,5970
Øhavsmuseet Faaborg,6,55.0954714,10.2384866,"Øhavsmuseet, Vestkaj, Faaborg, Faaborg-Midtfyn Kommune, Region Syddanmark, 5600, Danmark",Danmark,Øhavsmuseet,Faaborg-Midtfyn Kommune,Region Syddanmark,5600
Kastrupgårdsamlingen,6,55.6346841,12.638334903668166,"Kastrupgårdsamlingen, Kastrupvej, Kastrup, Tårnby Kommune, Region Hovedstaden, 2770, Danmark",Danmark,Kastrupgårdsamlingen,Tårnby Kommune,Region Hovedstaden,2770
Vejen Kunstmuseum,6,55.4772587,9.139991658600819,"Vejen Kunstmuseum, Lindegade, Vejen, Vejen Kommune, Region Syddanmark, 6600, Danmark",Danmark,Vejen Kunstmuseum,Vejen Kommune,Region Syddanmark,6600
Museum Jorn,6,56.16114775,9.558706495828103,"Museum Jorn, Gudenåvej, Århusbakken, Silkeborg, Silkeborg Kommune, Region Midtjylland, 8600, Danmark",Danmark,Museum Jorn,Silkeborg Kommune,Region Midtjylland,8600
Kroppedal Museum,6,55.68465445,12.311333065055553,"Kroppedal Museum, Kroppedals Alle, Vridsløsemagle, Høje-Taastrup Kommune, Region Hovedstaden, 2630, Danmark",Danmark,Kroppedal Museum,Høje-Taastrup Kommune,Region Hovedstaden,2630
Statens Naturhistoriske Museum,6,55.6873905,12.576990880631522,"Statens Naturhistoriske Museum, Øster Voldgade, Østervold, Indre By, København, Københavns Kommune, Region Hovedstaden, 1307, Danmark",Danmark,Statens Naturhistoriske Museum,Københavns Kommune,Region Hovedstaden,1307
Struer Museum,6,56.490036700000005,8.599891900471507,"Struer Museum, Søndergade, Struer, Struer Kommune, Region Midtjylland, 7600, Danmark",Danmark,Struer Museum,Struer Kommune,Region Midtjylland,7600
Svendborg Museum,6,55.062332,10.60372,"13, Grubbemøllevej, Klostervænget, Belvedere, Svendborg, Svendborg Kommune, Region Syddanmark, 5700, Danmark",Danmark,,Svendborg Kommune,Region Syddanmark,5700
Holstebro Kunstmuseum,6,56.354382400000006,8.62151219582965,"Holstebro Kunstmuseum, Sønderbrogade, Sønderland, Holstebro, Holstebro Kommune, Region Midtjylland, 7500, Danmark",Danmark,Holstebro Kunstmuseum,Holstebro Kommune,Region Midtjylland,7500
Kunsten Museum Of Modern Art Aalborg,6,57.04255035,9.905779076472736,"Kunsten, Kong Christians Alle, Hasseris Villaby, Aalborg, Aalborg Kommune, Region Nordjylland, 9000, Danmark",Danmark,Kunsten,Aalborg Kommune,Region Nordjylland,9000
Lystfartøjsmuseet,5,56.63780465,9.800943149999998,"Lystfartøjsmuseet, Pakhusstræde, Horsø Huse, Hobro, Mariagerfjord Kommune, Region Nordjylland, 9500, Danmark",Danmark,Lystfartøjsmuseet,Mariagerfjord Kommune,Region Nordjylland,9500
Museet Ribes Vikinger,5,55.32810335,8.768609829113196,"Museet Ribes Vikinger, Odins Plads, Ribe, Esbjerg Kommune, Region Syddanmark, 6760, Danmark",Danmark,Museet Ribes Vikinger,Esbjerg Kommune,Region Syddanmark,6760
Kunstmuseet Brundlund Slot,5,55.0393197,9.41390217719726,"Kunstmuseet Brundlund Slot, Ved Slottet, Aabenraa, Aabenraa Kommune, Region Syddanmark, 6200, Danmark",Danmark,Kunstmuseet Brundlund Slot,Aabenraa Kommune,Region Syddanmark,6200
Kunstmuseet I Tønder Kulturhistorie Tønder,5,54.932683,8.867584,"1, Wegners Plads, Tønder, Tønder Kommune, Region Syddanmark, 6270, Danmark",Danmark,,Tønder Kommune,Region Syddanmark,6270
Landskabs- Og Landsbrugsmuseet Mosbjerg,5,57.504689,10.299197,"Højen, 613, Jerupvej, Sindal, Hjørring Kommune, Region Nordjylland, 9870, Danmark",Danmark,Højen,Hjørring Kommune,Region Nordjylland,9870
Museet På Gl. Rye Mølle,5,56.076009,9.701899,"5, Møllestien, Ry, Skanderborg Kommune, Region Midtjylland, 8680, Danmark",Danmark,,Skanderborg Kommune,Region Midtjylland,8680
Museum Frello,5,55.620201,8.478517,"1, Kirkepladsen, Kongsgård, Varde, Varde Kommune, Region Syddanmark, 6800, Danmark",Danmark,,Varde Kommune,Region Syddanmark,6800
Landbrugsmuseet På Melstedgård,5,55.202557,14.979203,"25, Melstedvej, Gudhjem, Bornholms Regionskommune, Region Hovedstaden, 3760, Danmark",Danmark,,Bornholms Regionskommune,Region Hovedstaden,3760
Køge Museum,5,55.4568615,12.183553021920424,"Køge Museum, Nørregade, Gammel Køge By, Køge, Køge Kommune, Region Sjælland, 4600, Danmark",Danmark,Køge Museum,Køge Kommune,Region Sjælland,4600
Klosterlund Museum,5,56.18580275,9.354362407122302,"Klosterlund Museum, Kragelundvej, Ikast-Brande Kommune, Region Midtjylland, 7442, Danmark",Danmark,Klosterlund Museum,Ikast-Brande Kommune,Region Midtjylland,7442
Lejre Museum,5,55.615413000000004,11.969416911437566,"Lejre Museum, Orehøjvej, Gammel Lejre, Lejre, Lejre Kommune, Region Sjælland, 4320, Danmark",Danmark,Lejre Museum,Lejre Kommune,Region Sjælland,4320
Kommandørgården,5,55.166275150000004,8.555544749929584,"Kommandørgården, Juvrevej, Toftum, Tønder Kommune, Region Syddanmark, Danmark",Danmark,Kommandørgården,Tønder Kommune,Region Syddanmark,6792
Koldkrigsmuseum Stevnsfort,5,55.26420235,12.411344557334523,"Koldkrigsmuseum Stevnsfort, Korsnæbsvej, Stevns Kommune, Region Sjælland, 4673, Danmark",Danmark,Koldkrigsmuseum Stevnsfort,Stevns Kommune,Region Sjælland,4673
Kronborg Slot,5,56.039285,12.6212512,"Kronborg Slot, Kronborg, Helsingør, Helsingør Kommune, Region Hovedstaden, 3000, Danmark",Danmark,Kronborg Slot,Helsingør Kommune,Region Hovedstaden,3000
Kongernes Jelling,5,55.75687055,9.418160367935197,"Kongernes Jelling, Gormsgade, Jelling, Vejle Kommune, Region Syddanmark, 7300, Danmark",Danmark,Kongernes Jelling,Vejle Kommune,Region Syddanmark,7300
Liselund Gl. Slot,5,54.999051800000004,12.524484039417302,"Liselund Gammel Slot, Langebjergvej, Vordingborg Kommune, Region Sjælland, Danmark",Danmark,Liselund Gammel Slot,Vordingborg Kommune,Region Sjælland,4791
Mandøhuset,5,55.27404785,8.537334870913462,"Mandøhuset, Mandø Byvej, Mandø By, Esbjerg Kommune, Region Syddanmark, Danmark",Danmark,Mandøhuset,Esbjerg Kommune,Region Syddanmark,6760
Malergården,5,55.789583,11.6229064,"Malergården, Plejerupvej, Plejerup Huse, Gundestrup, Odsherred Kommune, Region Sjælland, 4571, Danmark",Danmark,Malergården,Odsherred Kommune,Region Sjælland,4571
Kulturhistorisk Museum Rønne,5,55.102498,14.703284,"29, Sankt Mortens Gade, Nørrekås, Rønne, Bornholms Regionskommune, Region Hovedstaden, 3700, Danmark",Danmark,,Bornholms Regionskommune,Region Hovedstaden,3700
Kulturhistorie Aabenraa,5,55.04475165,9.421954549999999,"Kulturhistorie Aabenraa, H.P. Hanssens Gade, Jørgensgård, Aabenraa, Aabenraa Kommune, Region Syddanmark, 6200, Danmark",Danmark,Kulturhistorie Aabenraa,Aabenraa Kommune,Region Syddanmark,6200
Abelines Gaard,5,55.94549035,8.156056137710337,"Abelines Gaard, Sønder Klitvej, Haurvig, Ringkøbing-Skjern Kommune, Region Midtjylland, 6960, Danmark",Danmark,Abelines Gaard,Ringkøbing-Skjern Kommune,Region Midtjylland,6960
Lyngvig Fyr,5,56.049722149999994,8.103638849687819,"Lyngvig Fyr, Holmsland Klitvej, Nørre Lyngvig, Ringkøbing-Skjern Kommune, Region Midtjylland, Danmark",Danmark,Lyngvig Fyr,Ringkøbing-Skjern Kommune,Region Midtjylland,6960
Kongernes Lapidarium,5,55.6731268,12.5797395,"Kongernes Lapidarium, Frederiksholms Kanal, Gammelholm, Christianshavn, København, Københavns Kommune, Region Hovedstaden, 1473, Danmark",Danmark,Kongernes Lapidarium,Københavns Kommune,Region Hovedstaden,1473
Lützhøfs Købmandsgård,5,55.63600716430402,12.07558875936816,"Ringstedgade, Musicon, Roskilde, Roskilde Kommune, Region Sjælland, 4000, Danmark",Danmark,Ringstedgade,Roskilde Kommune,Region Sjælland,4000
Ordrupgaard,5,55.7671888,12.5629601,"Ordrupgaard, Kratvænget, Ordrup, Klampenborg, Gentofte Kommune, Region Hovedstaden, 2920, Danmark",Danmark,Ordrupgaard,Gentofte Kommune,Region Hovedstaden,2920
Museum Østjylland Ebeltoft,5,56.2004497,10.6787439,"Museum Østjylland, Maltgården, Ebeltoft, Syddjurs Kommune, Region Midtjylland, 8400, Danmark",Danmark,Museum Østjylland,Syddjurs Kommune,Region Midtjylland,8400
Skælskør Bymuseum,5,55.2535671,11.292350918159507,"Skælskør Bymuseum, Algade, Spegerborg Huse, Skælskør, Slagelse Kommune, Region Sjælland, 4230, Danmark",Danmark,Skælskør Bymuseum,Slagelse Kommune,Region Sjælland,4230
Sorø Museum,5,55.4332763,11.556449057627269,"Sorø Museum, Storgade, Sorø, Sorø Kommune, Region Sjælland, 4180, Danmark",Danmark,Sorø Museum,Sorø Kommune,Region Sjælland,4180
Spøttrup Middelalderborg,5,56.638358,8.785979,"6A, Borgen, Spøttrup, Skive Kommune, Region Midtjylland, 7860, Danmark",Danmark,,Skive Kommune,Region Midtjylland,7860
Stenaldercentret Ertebølle,5,56.810565,9.177906,"8, Gammel Møllevej, Ertebølle, Farsø, Vesthimmerlands Kommune, Region Nordjylland, 9640, Danmark",Danmark,,Vesthimmerlands Kommune,Region Nordjylland,9640
Storm P. Museet,5,55.674422699999994,12.531985500724037,"Storm P. Museet, Frederiksberg Runddel, Frederiksberg, Frederiksberg Kommune, Region Hovedstaden, 1854, Danmark",Danmark,Storm P. Museet,Frederiksberg Kommune,Region Hovedstaden,1854
Strandingsmuseum St. George,5,56.373223949999996,8.118626443758663,"Strandingsmuseum St. George, Vesterhavsgade, Thorsminde, Holstebro Kommune, Region Midtjylland, Danmark",Danmark,Strandingsmuseum St. George,Holstebro Kommune,Region Midtjylland,6990
Sønderborg Slot,5,54.90693505,9.783533505846247,"Sønderborg Slot, Sønderbro, Sønderborg, Sønderborg Kommune, Region Syddanmark, 6400, Danmark",Danmark,Sønderborg Slot,Sønderborg Kommune,Region Syddanmark,6400
Tadre Mølle Museum,5,55.6148269,11.8132526,"Tadre Mølle, Tadre Møllevej, Lejre Kommune, Region Sjælland, 4330, Danmark",Danmark,Tadre Mølle,Lejre Kommune,Region Sjælland,4330
Tekstilmuseet,5,56.136284,8.963265,"Tekstilmuseet, Vestergade, Herning, Herning Kommune, Region Midtjylland, 7400, Danmark",Danmark,Tekstilmuseet,Herning Kommune,Region Midtjylland,7400
Thisted Museum,5,56.95423235,8.69031569913345,"Thisted Museum, Store Torv, Halden, Thisted, Thisted Kommune, Region Nordjylland, Danmark",Danmark,Thisted Museum,Thisted Kommune,Region Nordjylland,7700
Thorvaldsens Museum,5,55.6767531,12.578787850580623,"Thorvaldsens Museum, Bertel Thorvaldsens Plads, Indre By, København, Københavns Kommune, Region Hovedstaden, 1213, Danmark",Danmark,Thorvaldsens Museum,Københavns Kommune,Region Hovedstaden,1213
Tirpitz Stillingen,5,55.55039555,8.172202500000001,"Tirpitz Stillingen, Tirpitzvej, Grønbjerg, Varde Kommune, Region Syddanmark, 6857, Danmark",Danmark,Tirpitz Stillingen,Varde Kommune,Region Syddanmark,6857
Varde Artillerimuseum,5,55.621184,8.293113,"18, Industrivej, Hesselmed, Varde, Varde Kommune, Region Syddanmark, 6840, Danmark",Danmark,,Varde Kommune,Region Syddanmark,6840
Vester Palsgaard Skovmuseum,5,55.9998544,9.40494328702836,"Vester Palsgaard Skovmuseum, Palsgårdvej, Ikast-Brande Kommune, Region Midtjylland, 8766, Danmark",Danmark,Vester Palsgaard Skovmuseum,Ikast-Brande Kommune,Region Midtjylland,8766
Vikingeborgentrelleborg,5,55.394655,11.272003,"4, Trelleborg Alle, Trælleborg Gårde, Slagelse Kommune, Region Sjælland, 4200, Danmark",Danmark,,Slagelse Kommune,Region Sjælland,4200
Vikingemuseet Ladby,5,55.4434986,10.616986620281047,"Vikingemuseet Ladby, Vikingevej, Kerteminde Kommune, Region Syddanmark, 5300, Danmark",Danmark,Vikingemuseet Ladby,Kerteminde Kommune,Region Syddanmark,5300
Vorupør Museum,5,56.9500188,8.372853279383682,"Vorupør Museum, Vesterhavsgade, Vorupør Landingsplads, Nørre Vorupør, Thisted Kommune, Region Nordjylland, Danmark",Danmark,Vorupør Museum,Thisted Kommune,Region Nordjylland,7700
Æbelholt Kloster Museum,5,55.943875,12.214864,"4, Æbelholt, Hillerød, Hillerød Kommune, Region Hovedstaden, 3400, Danmark",Danmark,,Hillerød Kommune,Region Hovedstaden,3400
Ølgod Museum,5,55.808118,8.617063,"5, Vestergade, Ølgod, Varde Kommune, Region Syddanmark, 6870, Danmark",Danmark,,Varde Kommune,Region Syddanmark,6870
Øm Kloster Museum,5,56.0524415,9.7499642,"Emborg / Øm Kloster museum, Munkevej, Emborg, Skanderborg Kommune, Region Midtjylland, 8680, Danmark",Danmark,Emborg / Øm Kloster museum,Skanderborg Kommune,Region Midtjylland,8680
Slagelse Museum,5,55.40144,11.351058,"11A, Bredegade, Slagelse, Slagelse Kommune, Region Sjælland, 4200, Danmark",Danmark,,Slagelse Kommune,Region Sjælland,4200
Skjoldborgs Barndomshjem,5,57.025874,9.006366,"6, Skippergade, Vesløs, Thisted Kommune, Region Nordjylland, 7742, Danmark",Danmark,,Thisted Kommune,Region Nordjylland,7742
Museum Østjylland Grenå,5,56.412671200000005,10.87601919609894,"Museum Østjylland, Søndergade, Åbyen, Grenaa, Norddjurs Kommune, Region Midtjylland, 8500, Danmark",Danmark,Museum Østjylland,Norddjurs Kommune,Region Midtjylland,8500
Skjern Vindmølle,5,55.95262405,8.494793997965775,"Skjern Vindmølle, Langagervej, Vejle, Vrå, Skjern, Ringkøbing-Skjern Kommune, Region Midtjylland, 6900, Danmark",Danmark,Skjern Vindmølle,Ringkøbing-Skjern Kommune,Region Midtjylland,6900
Musikmuseet,5,55.682313,12.5523771,"Musikmuseet, Rosenørns Allé, Frederiksberg, Frederiksberg Kommune, Region Hovedstaden, 1924, Danmark",Danmark,Musikmuseet,Frederiksberg Kommune,Region Hovedstaden,1924
Møntergården,5,55.39794375,10.394027144234606,"Møntergården, Møntestræde, City Campus, Odense, Odense Kommune, Region Syddanmark, 5000, Danmark",Danmark,Møntergården,Odense Kommune,Region Syddanmark,5000
Møstings Hus,5,55.678374399999996,12.527760024867693,"Møstings Hus, Andebakkesti, Frederiksberg, Frederiksberg Kommune, Region Hovedstaden, 1861, Danmark",Danmark,Møstings Hus,Frederiksberg Kommune,Region Hovedstaden,1861
Naturama,5,55.063749,10.606978,"30, Dronningemaen, Klostervænget, Belvedere, Svendborg, Svendborg Kommune, Region Syddanmark, 5700, Danmark",Danmark,,Svendborg Kommune,Region Syddanmark,5700
Naturhistorie Og Palæontologi,5,55.30764245,9.061697278559526,"Naturhistorie og Palæontologi, Slotsvej, Haderslev Kommune, Region Syddanmark, 6510, Danmark",Danmark,Naturhistorie og Palæontologi,Haderslev Kommune,Region Syddanmark,6510
Nymindegab Museum,5,55.8173336,8.197658284369446,"Nymindegab Museum, Vesterhavsvej, Nymindegab, Varde Kommune, Region Syddanmark, Danmark",Danmark,Nymindegab Museum,Varde Kommune,Region Syddanmark,6830
Odsherreds Museum,5,55.9018779,11.667105,"Odsherreds Museum, Annebjerg Stræde, Hunstrup, Moseby, Odsherred Kommune, Region Sjælland, 4500, Danmark",Danmark,Odsherreds Museum,Odsherred Kommune,Region Sjælland,4500
Kaj Munks Præstegård,5,56.24883175,8.184504367512666,"Kaj Munks Præstegård, Vesterhavsvej, Kirkeby, Trankær, Ringkøbing-Skjern Kommune, Region Midtjylland, Danmark",Danmark,Kaj Munks Præstegård,Ringkøbing-Skjern Kommune,Region Midtjylland,6990
Papirmuseet Bikuben,5,56.170664,9.55544,"78, Papirfabrikken, Århusbakken, Silkeborg, Silkeborg Kommune, Region Midtjylland, 8600, Danmark",Danmark,,Silkeborg Kommune,Region Midtjylland,8600
Prinsens Palais,5,55.674495,12.574687,"10, Ny Vestergade, Postbyen, Indre By, København, Københavns Kommune, Region Hovedstaden, 1471, Danmark",Danmark,,Københavns Kommune,Region Hovedstaden,1471
Ribe Domkirkemuseum,5,55.328043,8.761009,"19, Torvet, Esbjerg, Esbjerg Kommune, Region Syddanmark, 6760, Danmark",Danmark,,Esbjerg Kommune,Region Syddanmark,6760
Ringkøbing Museum,5,56.08823725,8.247440784719624,"Ringkøbing Museum, Kongevejen, Rindum, Ringkøbing, Ringkøbing-Skjern Kommune, Region Midtjylland, 6950, Danmark",Danmark,Ringkøbing Museum,Ringkøbing-Skjern Kommune,Region Midtjylland,6950
Ringsted Museum,5,55.44301245,11.792245766179061,"Ringsted Radiomuseum, Sanct Hansgade, Ringsted, Ringsted Kommune, Region Sjælland, 4100, Danmark",Danmark,Ringsted Radiomuseum,Ringsted Kommune,Region Sjælland,4100
Rosenborgsamlingen,5,55.686204,12.576481,"4A, Øster Voldgade, Nørrevold, Indre By, København, Københavns Kommune, Region Hovedstaden, 1350, Danmark",Danmark,,Københavns Kommune,Region Hovedstaden,1350
Roskilde Museum,5,55.6424448,12.083345308542125,"Roskilde Museum, Sankt Ols Stræde, Sankt Agnes Huse, Roskilde, Roskilde Kommune, Region Sjælland, 4000, Danmark",Danmark,Roskilde Museum,Roskilde Kommune,Region Sjælland,4000
Skagen By- Og Egnsmuseum,5,57.716425,10.574530979040158,"Kystmuseet Skagen, Lodsvej, Vesterby, Skagen, Frederikshavn Kommune, Region Nordjylland, 9990, Danmark",Danmark,Kystmuseet Skagen,Frederikshavn Kommune,Region Nordjylland,9990
Skanderborg Bunkerne,5,56.0216214,9.9178273,"Skanderborg Bunkerne, Kindlersvej, Skanderborg, Skanderborg Kommune, Region Midtjylland, 8660, Danmark",Danmark,Skanderborg Bunkerne,Skanderborg Kommune,Region Midtjylland,8660
Skanderborg Museum,5,56.043585,9.92623,"Perron1, Banegårdspladsen, Skanderborg Bakker, Skanderborg, Skanderborg Kommune, Region Midtjylland, 8660, Danmark",Danmark,Perron1,Skanderborg Kommune,Region Midtjylland,8660
Skive Museum,5,56.56938235,9.036605919593036,"Skive Museum, Ågade, Skive, Skive Kommune, Region Midtjylland, 7800, Danmark",Danmark,Skive Museum,Skive Kommune,Region Midtjylland,7800
Kalundborg Museum,5,55.6808645,11.079196855162746,"Kalundborg Museum, Adelgade, Kalundborg, Kalundborg Kommune, Region Sjælland, 4400, Danmark",Danmark,Kalundborg Museum,Kalundborg Kommune,Region Sjælland,4400
Aalborg Historiske Museum,5,57.04815735,9.917958040295822,"Aalborg Historiske Museum, Adelgade, Eternitten, Aalborg, Aalborg Kommune, Region Nordjylland, 9000, Danmark",Danmark,Aalborg Historiske Museum,Aalborg Kommune,Region Nordjylland,9000
Johannes Larsen Museet,5,55.45610205,10.661612189978827,"Johannes Larsen Museet, Hindsholmvej, Kerteminde, Kerteminde Kommune, Region Syddanmark, 5300, Danmark",Danmark,Johannes Larsen Museet,Kerteminde Kommune,Region Syddanmark,5300
Hals Museum Hals Skanse,5,56.99323,10.309848,"1, Skansen, Hals, Aalborg Kommune, Region Nordjylland, 9370, Danmark",Danmark,,Aalborg Kommune,Region Nordjylland,9370
Fiskerhuset I Agger,5,56.782249,8.237112,"9, Toftevej, Vester Agger, Vestervig, Thisted Kommune, Region Nordjylland, 7770, Danmark",Danmark,,Thisted Kommune,Region Nordjylland,7770
Flakkebjerg Skolemuseum,5,55.31371295,11.397357570029364,"Flakkebjerg Skolemuseum, Gimlingevej, Rugbjerg, Flakkebjerg, Slagelse Kommune, Region Sjælland, 4261, Danmark",Danmark,Flakkebjerg Skolemuseum,Slagelse Kommune,Region Sjælland,4261
Bramming Egnsmuseum,5,55.46431005,8.699990155512296,"Bramming Egnsmuseum, Thues Vej, Godthåbparken, Bramming, Esbjerg Kommune, Region Syddanmark, 6740, Danmark",Danmark,Bramming Egnsmuseum,Esbjerg Kommune,Region Syddanmark,6740
Jens Søndergårds Museum,5,56.525913,8.118689,"4, Transvej, Lemvig, Lemvig Kommune, Region Midtjylland, 7620, Danmark",Danmark,,Lemvig Kommune,Region Midtjylland,7620
Frederikssund Museum Færgegården,5,55.84123305,12.032202871260525,"Frederikssund Museum, Færgelundsvej, Frederikssund, Frederikssund Kommune, Region Hovedstaden, 3600, Danmark",Danmark,Frederikssund Museum,Frederikssund Kommune,Region Hovedstaden,3600
Bork Vikingehavn,5,55.83727695,8.267052981516532,"Bork Vikingehavn, Fjordvej, Bork Hytteby, Bork Havn, Ringkøbing-Skjern Kommune, Region Midtjylland, 6893, Danmark",Danmark,Bork Vikingehavn,Ringkøbing-Skjern Kommune,Region Midtjylland,6893
Frilandsmuseet,5,55.7881586,12.494325740355164,"Frilandsmuseet, Fuglevadsvej, Fuglevad, Brede, Kongens Lyngby, Lyngby-Taarbæk Kommune, Region Hovedstaden, 2800, Danmark",Danmark,Frilandsmuseet,Lyngby-Taarbæk Kommune,Region Hovedstaden,2800
Borgmestergården,5,55.3115581,10.7885194,"Borgmestergården, Slotsgade, Avnslev Dyrehave, Pilshuse, Nyborg, Nyborg Kommune, Region Syddanmark, 5800, Danmark",Danmark,Borgmestergården,Nyborg Kommune,Region Syddanmark,5800
Frøslevlejrens Museum,5,54.843024,9.329593,"83, Lejrvejen, Padborg, Aabenraa Kommune, Region Syddanmark, 6330, Danmark",Danmark,,Aabenraa Kommune,Region Syddanmark,6330
Fængselsmuseet,5,55.874059,9.836301,"8, Fussingsvej, Vestermark, Horsens, Horsens Kommune, Region Midtjylland, 8700, Danmark",Danmark,,Horsens Kommune,Region Midtjylland,8700
Boldrup Museum,5,56.67875575,9.631597537514295,"Boldrup Museum, Ørnbjergvej, Stenild, Rebild Kommune, Region Nordjylland, Danmark",Danmark,Boldrup Museum,Rebild Kommune,Region Nordjylland,9610
Blicheregnens Museum,5,56.285381,9.333635,"30, Blichersvej, Kjellerup, Silkeborg Kommune, Region Midtjylland, 8620, Danmark",Danmark,,Silkeborg Kommune,Region Midtjylland,8620
Geomuseum Faxe,5,55.2556562,12.1231073,"Geomuseum Faxe, Østervej, Faxe, Faxe Kommune, Region Sjælland, 4640, Danmark",Danmark,Geomuseum Faxe,Faxe Kommune,Region Sjælland,4640
Bangsbomuseet,5,57.4197,10.50311,"6, Dronning Margrethes Vej, Bangsbostrand, Frederikshavn, Frederikshavn Kommune, Region Nordjylland, 9900, Danmark",Danmark,,Frederikshavn Kommune,Region Nordjylland,9900
Glyngøre Kulturstation,5,56.76246795,8.8680388,"Glyngøre Kulturstation, Museumstorvet, Glyngøre, Skive Kommune, Region Midtjylland, Danmark",Danmark,Glyngøre Kulturstation,Skive Kommune,Region Midtjylland,7870
Graabrødrekloster Museum,5,57.047149,9.92161,"19, Algade, Eternitten, Aalborg, Aalborg Kommune, Region Nordjylland, 9000, Danmark",Danmark,,Aalborg Kommune,Region Nordjylland,9000
Bakkehuset,5,54.8515252,11.380978201648894,"Bakkehuset, Lolland Kommune, Region Sjælland, Danmark",Danmark,Bakkehuset,Lolland Kommune,Region Sjælland,1801
Farvergården,5,55.4496558,10.657944424660272,"Farvergården, Langegade, Feddet, Kerteminde, Kerteminde Kommune, Region Syddanmark, 5300, Danmark",Danmark,Farvergården,Kerteminde Kommune,Region Syddanmark,5300
Esbjerg Vandtårn,5,55.46447445,8.449945549999999,"Esbjerg Vandtårn, Havnegade, Rørkjær, Esbjerg, Esbjerg Kommune, Region Syddanmark, 6700, Danmark",Danmark,Esbjerg Vandtårn,Esbjerg Kommune,Region Syddanmark,6700
Bundsbæk Mølle,5,56.0067661,8.478700081612903,"Bundsbæk Mølle, Bundsbækvej, Ringkøbing-Skjern Kommune, Region Midtjylland, 6900, Danmark",Danmark,Bundsbæk Mølle,Ringkøbing-Skjern Kommune,Region Midtjylland,6900
Danmarks Rockmuseum,5,55.628088,12.083015,"16, Rabalderstræde, Musicon, Roskilde, Roskilde Kommune, Region Sjælland, 4000, Danmark",Danmark,,Roskilde Kommune,Region Sjælland,4000
Carl Nielsens Barndomshjem,5,55.292691500000004,10.388719884505871,"Carl Nielsens Barndomshjem, Albanivej, Nørre Lyndelse, Faaborg-Midtfyn Kommune, Region Syddanmark, Danmark",Danmark,Carl Nielsens Barndomshjem,Faaborg-Midtfyn Kommune,Region Syddanmark,5792
Cathrineminde Teglværk,5,54.876297,9.656872,"7, Illerstrandvej, Mølmark, Sønderborg, Sønderborg Kommune, Region Syddanmark, 6310, Danmark",Danmark,,Sønderborg Kommune,Region Syddanmark,6310
Christiansborg Slot,5,55.6756505,12.580040630531485,"Christiansborg Slot, Frederiksholms Kanal, Postbyen, Indre By, København, Københavns Kommune, Region Hovedstaden, 1220, Danmark",Danmark,Christiansborg Slot,Københavns Kommune,Region Hovedstaden,1220
Cirkusmuseet Rold,5,56.773125,9.816639,"1, Østerled, Arden, Mariagerfjord Kommune, Region Nordjylland, 9510, Danmark",Danmark,,Mariagerfjord Kommune,Region Nordjylland,9510
Bunkermuseet Hirtshals,5,57.5848943,9.9431074,"Bunkermuseet Hirtshals 10. Batteri, Fyret, Fyrbakken, Hirtshals, Hjørring Kommune, Region Nordjylland, 9850, Danmark",Danmark,Bunkermuseet Hirtshals 10. Batteri,Hjørring Kommune,Region Nordjylland,9850
Cisternerne,5,55.669590549999995,12.524201408119382,"Cisternerne, Roskildevej, Frederiksberg, Frederiksberg Kommune, Region Hovedstaden, 1805, Danmark",Danmark,Cisternerne,Frederiksberg Kommune,Region Hovedstaden,1805
Danmarks Borgcenter,5,55.006897,11.91095916944996,"Danmarks Borgcenter, Slotsruinen, Solvang, Vordingborg, Vordingborg Kommune, Region Sjælland, 4760, Danmark",Danmark,Danmarks Borgcenter,Vordingborg Kommune,Region Sjælland,4760
Den Fynske Landsby,5,55.3653971,10.384219882393955,"Den Fynske Landsby, Sejerskovvej, Folkebo, Hjallese, Odense, Odense Kommune, Region Syddanmark, 5230, Danmark",Danmark,Den Fynske Landsby,Odense Kommune,Region Syddanmark,5230
Esbjerg Museum,5,55.4693511,8.453500694034766,"Esbjerg Museum, Nørregade, Rørkjær, Esbjerg, Esbjerg Kommune, Region Syddanmark, 6700, Danmark",Danmark,Esbjerg Museum,Esbjerg Kommune,Region Syddanmark,6700
Den Selvejende Institution Østsjællands Museum,5,55.250638,12.121108,"2, Rådhusvej, Hovby, Faxe, Faxe Kommune, Region Sjælland, 4640, Danmark",Danmark,,Faxe Kommune,Region Sjælland,4640
Det Gamle Hus/Skibshallerne,5,56.122641,12.311474,"49A, Gilleleje Hovedgade, Gilleleje, Gribskov Kommune, Region Hovedstaden, 3250, Danmark",Danmark,,Gribskov Kommune,Region Hovedstaden,3250
Det Gamle Rådhus I Ribe,5,55.327691,8.762738,"1, Von Støckens Plads, Esbjerg, Esbjerg Kommune, Region Syddanmark, 6760, Danmark",Danmark,,Esbjerg Kommune,Region Syddanmark,6760
E Bindstouw I Lysgård,5,56.350344,9.341069,"40, Blichersvej, Lysgård, Viborg, Viborg Kommune, Region Midtjylland, 8800, Danmark",Danmark,,Viborg Kommune,Region Midtjylland,8800
Elværket,5,55.74760135,10.02572152761709,"Elværket, Palsgaardvej, Hosby, Hedensted Kommune, Region Midtjylland, 7130, Danmark",Danmark,Elværket,Hedensted Kommune,Region Midtjylland,7130
Energimuseet,5,56.35571185,9.603307671021128,"Energimuseet, Trækstien, Tange, Viborg Kommune, Region Midtjylland, Danmark",Danmark,Energimuseet,Viborg Kommune,Region Midtjylland,8850
Erichsens Gård,5,55.10363245,14.697697400095016,"Erichsens Gård, Laksegade, Nørrekås, Rønne, Bornholms Regionskommune, Region Hovedstaden, 3700, Danmark",Danmark,Erichsens Gård,Bornholms Regionskommune,Region Hovedstaden,3700
Hadsund Egns Museum,5,56.72349855,10.11452706052387,"Hadsund Egns og Møllehistorisk Samling, Rosendalssøen, Øgadekvarteret, Søndergårde, Hadsund, Mariagerfjord Kommune, Region Nordjylland, Danmark",Danmark,Hadsund Egns og Møllehistorisk Samling,Mariagerfjord Kommune,Region Nordjylland,9560
Fur Museum,5,56.81705985,9.021422097811055,"Fur Museum, Nr. Madsbadvej, Hvirp, Klode, Nederby, Skive Kommune, Region Midtjylland, 7884, Danmark",Danmark,Fur Museum,Skive Kommune,Region Midtjylland,7884
Hjorths Fabrik Bornholms Keramikmuseum,5,55.102534,14.696969,"5, Krystalgade, Nørrekås, Rønne, Bornholms Regionskommune, Region Hovedstaden, 3700, Danmark",Danmark,,Bornholms Regionskommune,Region Hovedstaden,3700
Industrimuseet Horsens,5,55.8607077,9.8611719,"Danmarks Industrimuseum, Villavej, Sønder Lindskov, Horsens, Horsens Kommune, Region Midtjylland, 8700, Danmark",Danmark,Danmarks Industrimuseum,Horsens Kommune,Region Midtjylland,8700
Apotekersamlingen Jens Bangs Stenhus,5,57.048437,9.921128,"9, Østerågade, Eternitten, Aalborg, Aalborg Kommune, Region Nordjylland, 9000, Danmark",Danmark,,Aalborg Kommune,Region Nordjylland,9000
Hirtshals Museum,5,57.5894824,9.960081716456758,"Hirtshals Museum, Vanggårdsgade, Hirtshals, Hjørring Kommune, Region Nordjylland, 9850, Danmark",Danmark,Hirtshals Museum,Hjørring Kommune,Region Nordjylland,9850
Amalienborg Museet Christian VIIIs Palæ,5,55.684622,12.593312,"7, Amalienborg Slotsplads, Frederiksstaden, Indre By, København, Københavns Kommune, Region Hovedstaden, 1257, Danmark",Danmark,,Københavns Kommune,Region Hovedstaden,1257
Højer Mølle,5,54.9642026,8.693044566728975,"Højer Mølle, Møllegade, Højer, Tønder Kommune, Region Syddanmark, 6280, Danmark",Danmark,Højer Mølle,Tønder Kommune,Region Syddanmark,6280
Hovedgården,5,56.169026,9.553111,"7, Hovedgårdsvej, Århusbakken, Silkeborg, Silkeborg Kommune, Region Midtjylland, 8600, Danmark",Danmark,,Silkeborg Kommune,Region Midtjylland,8600
Hjerl Hedes Frilandsmuseum,5,56.484941,8.870195,"14, Hjerlhedevej, Vinderup, Holstebro Kommune, Region Midtjylland, 7830, Danmark",Danmark,,Holstebro Kommune,Region Midtjylland,7830
Heltborg Museum Og Sydthy Kunst-Og Kulturcenter,5,56.752943,8.454006,"15, Skårhøjvej, Heltborg, Thisted Kommune, Region Nordjylland, 7760, Danmark",Danmark,,Thisted Kommune,Region Nordjylland,7760
Helsingør Kommunes Museer,5,56.037929,12.614778,"2, Allegade, Helsingør, Helsingør Kommune, Region Hovedstaden, 3000, Danmark",Danmark,,Helsingør Kommune,Region Hovedstaden,3000
Industrimuseet Frederiks Værk,5,55.972057,12.022074,"1, Torvet, Nyhuse, Arresødal, Frederiksværk, Halsnæs Kommune, Region Hovedstaden, 3300, Danmark",Danmark,,Halsnæs Kommune,Region Hovedstaden,3300
Arkæologi Haderslev,5,55.254186,9.498256,"7, Dalgade, Haderslev, Haderslev Kommune, Region Syddanmark, 6100, Danmark",Danmark,,Haderslev Kommune,Region Syddanmark,6100
Horsens Kunstmuseum,5,55.86454065,9.860826274310138,"Horsens Kunstmuseum, Højlundsgade, Sønder Lindskov, Horsens, Horsens Kommune, Region Midtjylland, 8700, Danmark",Danmark,Horsens Kunstmuseum,Horsens Kommune,Region Midtjylland,8700
Holstebro Museum,5,56.3537822,8.620896418145215,"Holstebro Museum, Museumsvej, Sønderland, Holstebro, Holstebro Kommune, Region Midtjylland, 7500, Danmark",Danmark,Holstebro Museum,Holstebro Kommune,Region Midtjylland,7500
Holbæk Museum,5,55.716640749999996,11.712415415296054,"Holbæk Museum, Kirkestræde, Jernstøberiet, Holbæk, Holbæk Kommune, Region Sjælland, 4300, Danmark",Danmark,Holbæk Museum,Holbæk Kommune,Region Sjælland,4300
Horsens Historiske Museum,5,55.863198,9.863231,"1A, Sundvej, Sønder Lindskov, Horsens, Horsens Kommune, Region Midtjylland, 8700, Danmark",Danmark,,Horsens Kommune,Region Midtjylland,8700
Helligåndshuset Næstved Museum,5,55.232314,11.758402,"4A, Ringstedgade, Næstved, Næstved Kommune, Region Sjælland, 4700, Danmark",Danmark,,Næstved Kommune,Region Sjælland,4700
Hvolris Jernalderlandsby,5,56.5807784,9.513873479402223,"Hvolris Jernalderlandsby, Herredsvejen, Bjerregrav, Viborg Kommune, Region Midtjylland, 9632, Danmark",Danmark,Hvolris Jernalderlandsby,Viborg Kommune,Region Midtjylland,9632
Jacob A Riis Museum,5,55.3285544,8.7635611,"Jacob A. Riis Museum, Sortebrødregade, Ribe, Esbjerg Kommune, Region Syddanmark, 6760, Danmark",Danmark,Jacob A. Riis Museum,Esbjerg Kommune,Region Syddanmark,6760
Museumsgården Karensminde,4,55.7578372,8.8706201,"Museumsgården Karensminde, Morsbølvej, Billund Kommune, Region Syddanmark, 7200, Danmark",Danmark,Museumsgården Karensminde,Billund Kommune,Region Syddanmark,7200
Havnø Mølle,4,56.71376515,10.16491905,"Havnø Mølle, Havnøvej, Mariagerfjord Kommune, Region Nordjylland, Danmark",Danmark,Havnø Mølle,Mariagerfjord Kommune,Region Nordjylland,9560
Fahl Kro,4,55.83527775,8.26744415080012,"Fahl Kro Museum, Oblingvej, Nissengårde, Bork Hytteby, Bork Havn, Ringkøbing-Skjern Kommune, Region Midtjylland, 6893, Danmark",Danmark,Fahl Kro Museum,Ringkøbing-Skjern Kommune,Region Midtjylland,6893
Skjern Reberbane,4,55.9498236,8.496509026732092,"Skjern Reberbane, Reberbanen, Vejle, Vrå, Skjern, Ringkøbing-Skjern Kommune, Region Midtjylland, 6900, Danmark",Danmark,Skjern Reberbane,Ringkøbing-Skjern Kommune,Region Midtjylland,6900
Naturhistorisk Museum Aarhus,4,56.16740315,10.203068374363081,"Naturhistorisk Museum, Ole Worms Allé, Nobelparken, Aarhus, Aarhus Kommune, Region Midtjylland, 8000, Danmark",Danmark,Naturhistorisk Museum,Aarhus Kommune,Region Midtjylland,8000
Frihedsmuseet,4,55.68818615,12.595794281027814,"Frihedsmuseet, Esplanaden, Frederiksstaden, Indre By, København, Københavns Kommune, Region Hovedstaden, 1263, Danmark",Danmark,Frihedsmuseet,Københavns Kommune,Region Hovedstaden,1263
Frilandsmuseet Herning,4,56.13240395,8.97258133127343,"Frilandsmuseet Herning, Museumsgade, Herning, Herning Kommune, Region Midtjylland, 7400, Danmark",Danmark,Frilandsmuseet Herning,Herning Kommune,Region Midtjylland,7400
Drøhses Hus,4,54.935435850000005,8.870036609275665,"Drøhses hus, Storegade, Tønder, Tønder Kommune, Region Syddanmark, 6270, Danmark",Danmark,Drøhses hus,Tønder Kommune,Region Syddanmark,6270
Københavns Museum,4,55.6743888,12.572421729181183,"Københavns Museum, Vester Voldgade, Postbyen, Indre By, København, Københavns Kommune, Region Hovedstaden, 1552, Danmark",Danmark,Københavns Museum,Københavns Kommune,Region Hovedstaden,1552
Holmegaard Værk,4,55.2835414,11.8175158,"Holmegaard Værk, Sibberupvej, Sibberup, Fensmark, Næstved Kommune, Region Sjælland, 4684, Danmark",Danmark,Holmegaard Værk,Næstved Kommune,Region Sjælland,4684
Møns Museum,4,54.9871297,12.28906314822352,"Møns Museum, Storegade, Nymark, Stege, Vordingborg Kommune, Region Sjælland, 4780, Danmark",Danmark,Møns Museum,Vordingborg Kommune,Region Sjælland,4780
Fiskeri- Og Søfartsmuseet / Saltvandsakvariet,4,55.532410293246606,8.413992876631498,"Tarphagevej, Højen, Bovbjerg, Guldager, Esbjerg Kommune, Region Syddanmark, 6710, Danmark",Danmark,Tarphagevej,Esbjerg Kommune,Region Syddanmark,6710
Thorvaldsen-Samlingen På Nysø,4,55.126746,12.031456,"1, Nysøvej, Præstemark, Rødeled, Vordingborg, Vordingborg Kommune, Region Sjælland, 4720, Danmark",Danmark,,Vordingborg Kommune,Region Sjælland,4720
Køng Museum,4,55.10974525,11.825675800000003,"Køng Museum, Bygaden, Højbro, Gadeskov, Køng, Vordingborg Kommune, Region Sjælland, 4750, Danmark",Danmark,Køng Museum,Vordingborg Kommune,Region Sjælland,4750
Skagens Kunstmuseer,4,57.724468,10.597215,"4, Brøndumsvej, Østerby, Skagen, Frederikshavn Kommune, Region Nordjylland, 9990, Danmark",Danmark,,Frederikshavn Kommune,Region Nordjylland,9990
Bunkermuseum Hanstholm,4,57.1208393,8.616405030651277,"Bunkermuseum Hanstholm, Molevej, Nørby, Hanstholm, Thisted Kommune, Region Nordjylland, 7730, Danmark",Danmark,Bunkermuseum Hanstholm,Thisted Kommune,Region Nordjylland,7730
Hex!,4,55.328563,8.763506,"1, Sortebrødregade, Esbjerg, Esbjerg Kommune, Region Syddanmark, 6760, Danmark",Danmark,,Esbjerg Kommune,Region Syddanmark,6760
Skibene På Holmen,3,55.688694,12.604461,"2, Elefanten, Margretheholm, Indre By, København, Københavns Kommune, Region Hovedstaden, 1439, Danmark",Danmark,,Københavns Kommune,Region Hovedstaden,1439
Krigsmuseet,3,55.6742215,12.580354029066815,"Krigsmuseet, Tøjhusgade, Gammelholm, Indre By, København, Københavns Kommune, Region Hovedstaden, 1214, Danmark",Danmark,Krigsmuseet,Københavns Kommune,Region Hovedstaden,1214
Bunkermuseet,3,55.5701988,9.7619363,"Bunkermuseet, Nørre Voldgade, Hyby Lund, Fredericia, Fredericia Kommune, Region Syddanmark, Danmark",Danmark,Bunkermuseet,Fredericia Kommune,Region Syddanmark,7000
Folkemuseet I Hillerød,3,55.933669,12.308921,"65, Helsingørsgade, Skansebakken, Teglgårdslund, Hillerød, Hillerød Kommune, Region Hovedstaden, 3400, Danmark",Danmark,,Hillerød Kommune,Region Hovedstaden,3400
Hobro Museum,3,56.63667485,9.793042128310276,"Hobro Museum, Vestergade, Vikingeparken Hobro, Hobro, Mariagerfjord Kommune, Region Nordjylland, 9500, Danmark",Danmark,Hobro Museum,Mariagerfjord Kommune,Region Nordjylland,9500
Skamlingsbanken,3,55.4187161,9.565716,"Skamlingsbanken, Kolding, Kolding Kommune, Region Syddanmark, 6093, Danmark",Danmark,Skamlingsbanken,Kolding Kommune,Region Syddanmark,6093
Odsherreds Kunstmuseum Hvide Hus,3,55.809698,11.505213,"11, Rødhøj, Asnæs, Odsherred Kommune, Region Sjælland, 4550, Danmark",Danmark,,Odsherred Kommune,Region Sjælland,4550
Kunstmuseum Brandts,3,55.395888,10.380712,"7, Amfipladsen, City Campus, Odense, Odense Kommune, Region Syddanmark, 5000, Danmark",Danmark,,Odense Kommune,Region Syddanmark,5000
Nyborg Slot,3,55.312717750000004,10.78676270549253,"Nyborg Slot, Slotsgade, Avnslev Dyrehave, Pilshuse, Nyborg, Nyborg Kommune, Region Syddanmark, 5800, Danmark",Danmark,Nyborg Slot,Nyborg Kommune,Region Syddanmark,5800
Brandts,3,55.3960533,10.3808033,"Brandts, Brandts Torv, City Campus, Odense, Odense Kommune, Region Syddanmark, 5000, Danmark",Danmark,Brandts,Odense Kommune,Region Syddanmark,5000
Dorf Møllegård,3,57.22149745,10.2838392913149,"Dorf Møllegård, Storskovvej, Dorf Kirkeby, Brønderslev Kommune, Region Nordjylland, 9330, Danmark",Danmark,Dorf Møllegård,Brønderslev Kommune,Region Nordjylland,9330
Museum Nordsjælland Hørsholm,3,55.875227,12.502816,"2, Søndre Jagtvej, Åsen, Hørsholm, Hørsholm Kommune, Region Hovedstaden, 2970, Danmark",Danmark,,Hørsholm Kommune,Region Hovedstaden,2970
Christiansfeld Centret c/o Søstrehuset,3,55.356144,9.481456,"Søstrehuset, 14, Nørregade, Tyrstrup, Kolding, Kolding Kommune, Region Syddanmark, 6070, Danmark",Danmark,Søstrehuset,Kolding Kommune,Region Syddanmark,6070
Amagermuseet,3,55.60061805,12.635679123224204,"Amagermuseet, Hovedgaden, Store Magleby, Dragør Kommune, Region Hovedstaden, 2791, Danmark",Danmark,Amagermuseet,Dragør Kommune,Region Hovedstaden,2791
Museum Amager,3,55.593553,12.674736,"4, Strandlinien, Dragør, Dragør Kommune, Region Hovedstaden, 2791, Danmark",Danmark,,Dragør Kommune,Region Hovedstaden,2791
Fyrhistorisk Museum,3,56.119171,12.343021,"25A, Fyrvejen, Nakkehoved, Gilleleje, Gribskov Kommune, Region Hovedstaden, 3250, Danmark",Danmark,,Gribskov Kommune,Region Hovedstaden,3250
Lindholm Høje,3,57.0768765,9.912283153439759,"Lindholm Høje, Lindholm, Aalborg, Aalborg Kommune, Region Nordjylland, Danmark",Danmark,Lindholm Høje,Aalborg Kommune,Region Nordjylland,9400
Staldgården,3,55.49090716089872,9.478127369511135,"Staldgården, Søndervang, Kolding, Kolding Kommune, Region Syddanmark, 6000, Danmark",Danmark,Staldgården,Kolding Kommune,Region Syddanmark,6000
Vikingecenter Fyrkat,3,56.62511915,9.782241184551747,"Vikingecenter Fyrkat, Fyrkatvej, Vikingeparken Hobro, Hobro, Mariagerfjord Kommune, Region Nordjylland, 9500, Danmark",Danmark,Vikingecenter Fyrkat,Mariagerfjord Kommune,Region Nordjylland,9500
Blichermuseum På Herningsholm,3,56.145666,8.998937,"1, Herregårdsparken, Herning, Herning Kommune, Region Midtjylland, 7400, Danmark",Danmark,,Herning Kommune,Region Midtjylland,7400
Skovgaard Museet I Viborg,3,56.45024058374002,9.412519790412627,"Domkirkestræde, Asmild, Viborg, Viborg Kommune, Region Midtjylland, 8800, Danmark",Danmark,Domkirkestræde,Viborg Kommune,Region Midtjylland,8800
Skovgaard Museet,3,56.450417349999995,9.411624472124092,"Skovgaard Museet, Domkirkestræde, Asmild, Viborg, Viborg Kommune, Region Midtjylland, 8800, Danmark",Danmark,Skovgaard Museet,Viborg Kommune,Region Midtjylland,8800
Dejbjerg Jernalder,2,56.0047056,8.4773904,"Dejbjerg Jernalder, Bundsbækvej, Ringkøbing-Skjern Kommune, Region Midtjylland, 6900, Danmark",Danmark,Dejbjerg Jernalder,Ringkøbing-Skjern Kommune,Region Midtjylland,6900
Skagens Museum,2,57.72452035,10.596791569768136,"Skagens Museum, Museumsstien, Østerby, Skagen, Frederikshavn Kommune, Region Nordjylland, 9990, Danmark",Danmark,Skagens Museum,Frederikshavn Kommune,Region Nordjylland,9990
De Gamle Huse Frilandsmuseet,2,54.770533,11.489791,"5, Meinckes Vej, Maribo, Lolland Kommune, Region Sjælland, 4930, Danmark",Danmark,,Lolland Kommune,Region Sjælland,4930
Hørsholm Egns Museum,2,55.87521125,12.502828146571296,"Hørsholm Egns Museum, Søndre Jagtvej, Åsen, Hørsholm, Hørsholm Kommune, Region Hovedstaden, 2970, Danmark",Danmark,Hørsholm Egns Museum,Hørsholm Kommune,Region Hovedstaden,2970
Sankt Laurentius,2,55.642537,12.083691,"2, Munkebro, Sankt Agnes Huse, Roskilde, Roskilde Kommune, Region Sjælland, 4000, Danmark",Danmark,,Roskilde Kommune,Region Sjælland,4000
Stiftsmuseet Maribo,2,54.77631555,11.502217304961842,"Stiftsmuseet Maribo, Banegårdspladsen, Maribo, Lolland Kommune, Region Sjælland, 4930, Danmark",Danmark,Stiftsmuseet Maribo,Lolland Kommune,Region Sjælland,4930
Alhambra Museet For Humor Og Satire,2,55.6754524,12.531562541262716,"Alhambra - Museet for humor og satire, Frederiksberg Runddel, Frederiksberg, Frederiksberg Kommune, Region Hovedstaden, 1854, Danmark",Danmark,Alhambra - Museet for humor og satire,Frederiksberg Kommune,Region Hovedstaden,1854
Jagt- Og Skovbrugsmuseet På Dorf,2,55.875155,12.502474,"17, Folehavevej, Åsen, Hørsholm, Hørsholm Kommune, Region Hovedstaden, 2970, Danmark",Danmark,,Hørsholm Kommune,Region Hovedstaden,2970
Janusbygningen,2,55.720236,8.607926,"25, Lærkevej, Gammel Tistrup, Varde, Varde Kommune, Region Syddanmark, 6862, Danmark",Danmark,,Varde Kommune,Region Syddanmark,6862
Ringkøbing-Skjern Museum,2,55.9498236,8.496509026732092,"Skjern Reberbane, Reberbanen, Vejle, Vrå, Skjern, Ringkøbing-Skjern Kommune, Region Midtjylland, 6900, Danmark",Danmark,Skjern Reberbane,Ringkøbing-Skjern Kommune,Region Midtjylland,6900
Hattemagerhuset I Tarm,2,55.899896,8.524295,"1, Foersumvej, Søparken Tarm, Sønderby, Tarm, Ringkøbing-Skjern Kommune, Region Midtjylland, 6880, Danmark",Danmark,,Ringkøbing-Skjern Kommune,Region Midtjylland,6880
Hodde Skolemuseum,2,55.698436,8.646008,"15, Letbækvej, Varde, Varde Kommune, Region Syddanmark, 6862, Danmark",Danmark,,Varde Kommune,Region Syddanmark,6862
Fanø Museum,2,55.34908085,8.471064512893431,"Fanø Kunstmuseum, Nord Land, Kåverdal, Sønderho, Fanø Kommune, Region Syddanmark, Danmark",Danmark,Fanø Kunstmuseum,Fanø Kommune,Region Syddanmark,6720
Museum Vestsjælland,2,55.70359719061791,11.75579907119967,"Oldvejen, Oldhuse, Holbæk, Holbæk Kommune, Region Sjælland, 4390, Danmark",Danmark,Oldvejen,Holbæk Kommune,Region Sjælland,4390
Blåvandshuk Fyr,2,55.55782805,8.083255034439999,"Blåvandshuk Fyr, Fyrvej, Blåvand, Varde Kommune, Region Syddanmark, 6857, Danmark",Danmark,Blåvandshuk Fyr,Varde Kommune,Region Syddanmark,6857
Museum Obscurum Falsters Minder,2,54.767749,11.866439,"1A, Færgestræde, Nykøbing Falster, Guldborgsund Kommune, Region Sjælland, 4800, Danmark",Danmark,,Guldborgsund Kommune,Region Sjælland,4800
Vikingemuseet Fyrkat,2,56.624933,9.781359,"37B, Fyrkatvej, Vikingeparken Hobro, Hohøj, Hobro, Mariagerfjord Kommune, Region Nordjylland, 9500, Danmark",Danmark,,Mariagerfjord Kommune,Region Nordjylland,9500
Herningsholm Museum,2,56.14565025,8.998944421535533,"Herningsholm, Herregårdsparken, Herning, Herning Kommune, Region Midtjylland, 7400, Danmark",Danmark,Herningsholm,Herning Kommune,Region Midtjylland,7400
Museum Lolland-Falster,2,54.763848,11.868545,"40, Frisegade, Nykøbing Falster, Guldborgsund Kommune, Region Sjælland, 4800, Danmark",Danmark,,Guldborgsund Kommune,Region Sjælland,4800
Vikingemuseet Lindholm Høje,2,57.078241,9.910168,"11, Vendilavej, Voerbjerg, Lindholm, Aalborg, Aalborg Kommune, Region Nordjylland, 9400, Danmark",Danmark,,Aalborg Kommune,Region Nordjylland,9400
Gåsemandens Gaard,2,55.837899,8.33237,"20, Galgebjergevej, Hemmet, Ringkøbing-Skjern Kommune, Region Midtjylland, 6893, Danmark",Danmark,,Ringkøbing-Skjern Kommune,Region Midtjylland,6893
H.C. Andersen Museum,2,55.6762498,12.5701546,"H.C. Andersen Museum, Vester Voldgade, Vestervold, Kødbyen, København, Københavns Kommune, Region Hovedstaden, 1550, Danmark",Danmark,H.C. Andersen Museum,Københavns Kommune,Region Hovedstaden,1550
H.C. Andersens Barndomshjem,2,55.3945279,10.387266727669486,"H. C. Andersens Barndomshjem, Munkemøllestræde, Hunderup, Odense, Odense Kommune, Region Syddanmark, 5000, Danmark",Danmark,H. C. Andersens Barndomshjem,Odense Kommune,Region Syddanmark,5000
H.C. Andersens Hus,2,55.3987262,10.390771990663058,"H. C. Andersens Hus, Bangs Boder, H. C. Andersenkvarteret, City Campus, Odense, Odense Kommune, Region Syddanmark, 5000, Danmark",Danmark,H. C. Andersens Hus,Odense Kommune,Region Syddanmark,5000
Vildmosemuseet,2,57.272937,9.945819,"35, Nørregade, Valby, Brønderslev, Brønderslev Kommune, Region Nordjylland, 9700, Danmark",Danmark,,Brønderslev Kommune,Region Nordjylland,9700
Haderup Museum,2,56.386187,8.991331,"1, Jens Jensensvej, Haderup, Herning Kommune, Region Midtjylland, 7540, Danmark",Danmark,,Herning Kommune,Region Midtjylland,7540
Haldladen - De Fem Halder,2,56.392336,9.34275,"71, Ravnsbjergvej, Bækkelund, Viborg, Viborg Kommune, Region Midtjylland, 8800, Danmark",Danmark,,Viborg Kommune,Region Midtjylland,8800
Mark Billund Kommunes Museer,2,55.757192,8.869689,"101, Morsbølvej, Grindsted, Billund Kommune, Region Syddanmark, 7200, Danmark",Danmark,,Billund Kommune,Region Syddanmark,7200
Mariager Museum,2,56.6501,9.982014,"Mariager Museum, Kirkegade, Udsigten, Mariager, Mariagerfjord Kommune, Region Nordjylland, 9550, Danmark",Danmark,Mariager Museum,Mariagerfjord Kommune,Region Nordjylland,9550
Reventlow-Museet,2,54.895934999999994,11.265515156687115,"Reventlow-Museet Pederstrup, Pederstrupvej, Lolland Kommune, Region Sjælland, 4953, Danmark",Danmark,Reventlow-Museet Pederstrup,Lolland Kommune,Region Sjælland,4953
Hillerød Bymuseum,2,55.92815935,12.2997125,"Folkemuseet, Frederiksgade, Trollesbro, Teglgårdslund, Hillerød, Hillerød Kommune, Region Hovedstaden, 3400, Danmark",Danmark,Folkemuseet,Hillerød Kommune,Region Hovedstaden,3400
Hammerichs Hus,2,54.8886471,10.411537379803494,"Hammerichs Hus, Brogade, Paradiset, Ærøskøbing, Ærø Kommune, Region Syddanmark, 5970, Danmark",Danmark,Hammerichs Hus,Ærø Kommune,Region Syddanmark,5970
Museumsgården,2,54.96949385,12.35049020308659,"Museumsgården Keldbylille, Skullebjergvej, Keldbylille, Vordingborg Kommune, Region Sjælland, Danmark",Danmark,Museumsgården Keldbylille,Vordingborg Kommune,Region Sjælland,4780
Kystmuseet Bangsbo,2,57.4085955,10.5160193,"Kystmuseet Bangsbo Fort - Bunker Museum, Understedvej, Bangsbo Fort, Bangsbostrand, Frederikshavn Kommune, Region Nordjylland, 9900, Danmark",Danmark,Kystmuseet Bangsbo Fort - Bunker Museum,Frederikshavn Kommune,Region Nordjylland,9900
Provstgaards Jagthus,2,55.919597,8.40627,"10, Langkærvej, Skjern, Ringkøbing-Skjern Kommune, Region Midtjylland, 6900, Danmark",Danmark,,Ringkøbing-Skjern Kommune,Region Midtjylland,6900
Provstgaards Hus,2,55.919586949999996,8.406289801212676,"Provstgaards Hus, Langkærvej, Ringkøbing-Skjern Kommune, Region Midtjylland, Danmark",Danmark,Provstgaards Hus,Ringkøbing-Skjern Kommune,Region Midtjylland,6900
Kystmuseet Sæby,2,57.335444,10.520994,"1B, Søndergade, Frederikshavn, Frederikshavn Kommune, Region Nordjylland, 9300, Danmark",Danmark,,Frederikshavn Kommune,Region Nordjylland,9300
Fiskeri- Og Søfartsmuseet,2,55.4901166,8.410726460820364,"Fiskeri- og Søfartsmuseet, Sædding Strandvej, Sædding Strand, Sædding, Esbjerg, Esbjerg Kommune, Region Syddanmark, 6710, Danmark",Danmark,Fiskeri- og Søfartsmuseet,Esbjerg Kommune,Region Syddanmark,6710
Tøjhusmuseet,2,55.674837,12.579628,"3, Tøjhusgade, Gammelholm, Indre By, København, Københavns Kommune, Region Hovedstaden, 1214, Danmark",Danmark,,Københavns Kommune,Region Hovedstaden,1214
Odsherreds Kunstmuseum,2,55.80968795,11.505142304774541,"Odsherreds Kunstmuseum, Rødhøj, Asnæs, Odsherred Kommune, Region Sjælland, 4550, Danmark",Danmark,Odsherreds Kunstmuseum,Odsherred Kommune,Region Sjælland,4550
Sæby Museum Og Sæbygård Slot,2,57.334106,10.478881,"49, Sæbygårdvej, Frederikshavn, Frederikshavn Kommune, Region Nordjylland, 9300, Danmark",Danmark,,Frederikshavn Kommune,Region Nordjylland,9300
Flugt,2,55.63500455,8.270448405820499,"FLUGT, Blåkjærstien, Bavnhøj, Oksbøl, Varde Kommune, Region Syddanmark, 6840, Danmark",Danmark,FLUGT,Varde Kommune,Region Syddanmark,6840
Nordjyllands Historiske Museum,2,57.048076,9.91818,"48, Algade, Eternitten, Aalborg, Aalborg Kommune, Region Nordjylland, 9000, Danmark",Danmark,,Aalborg Kommune,Region Nordjylland,9000
Naturhistorisk Museum,2,55.68845001467343,12.58049373683548,"Øster Voldgade, Østervold, Indre By, København, Københavns Kommune, Region Hovedstaden, 1350, Danmark",Danmark,Øster Voldgade,Københavns Kommune,Region Hovedstaden,1350
Hjedding Mejerimuseum,2,55.792293,8.613578,"2, Hjeddingvej, Varde, Varde Kommune, Region Syddanmark, 6870, Danmark",Danmark,,Varde Kommune,Region Syddanmark,6870
Museumsgården Kjeldbylille,2,54.969566,12.350954,"15, Skullebjergvej, Keldbylille, Stege, Vordingborg Kommune, Region Sjælland, 4780, Danmark",Danmark,,Vordingborg Kommune,Region Sjælland,4780
Vardemuseerne,1,55.738792,8.709255,"4, Lundvej, Ansager, Varde Kommune, Region Syddanmark, 6823, Danmark",Danmark,,Varde Kommune,Region Syddanmark,6823
Arresten,1,55.637263,12.079631,"21A, Jernbanegade, Sankt Agnes Huse, Roskilde, Roskilde Kommune, Region Sjælland, 4000, Danmark",Danmark,,Roskilde Kommune,Region Sjælland,4000
Bornholms Museum,1,55.10262555,14.703291816219892,"Bornholms Museum, Lille Madsegade, Rønne, Bornholms Regionskommune, Region Hovedstaden, 3700, Danmark",Danmark,Bornholms Museum,Bornholms Regionskommune,Region Hovedstaden,3700
Besættelsesudstillingen,1,55.757704,8.870575,"102, Morsbølvej, Grindsted, Billund Kommune, Region Syddanmark, 7200, Danmark",Danmark,,Billund Kommune,Region Syddanmark,7200
Carl Nielsen Museet,1,55.3995899,10.3919345,"Carl Nielsen Museet, Rosengade, H. C. Andersenkvarteret, City Campus, Odense, Odense Kommune, Region Syddanmark, 5000, Danmark",Danmark,Carl Nielsen Museet,Odense Kommune,Region Syddanmark,5000
Søbygaard,1,56.254306,9.796240522631013,"Søbygaard, Søbygårdsvej, Vadsted, Favrskov Kommune, Region Midtjylland, Danmark",Danmark,Søbygaard,Favrskov Kommune,Region Midtjylland,5985
Nordjyllands Kystmuseum,1,57.716292,10.57525,"Kystmuseet Skagen Cafe, P. K. Nielsens Vej, Vesterby, Skagen, Frederikshavn Kommune, Region Nordjylland, 9990, Danmark",Danmark,Kystmuseet Skagen Cafe,Frederikshavn Kommune,Region Nordjylland,9990
Sæby Museum,1,57.3354053,10.521231276569038,"Sæby Museum, Algade, Sæby, Frederikshavn Kommune, Region Nordjylland, 9300, Danmark",Danmark,Sæby Museum,Frederikshavn Kommune,Region Nordjylland,9300
Sydvestjyske Museer,1,55.327041,8.777544,"6B, Tangevej, Østermade, Esbjerg, Esbjerg Kommune, Region Syddanmark, 6760, Danmark",Danmark,,Esbjerg Kommune,Region Syddanmark,6760
Knud Rasmussens Hus,1,55.9749008,11.854285491731662,"Knud Rasmussens Hus, Knud Rasmussensvej, Hundested, Halsnæs Kommune, Region Hovedstaden, 3390, Danmark",Danmark,Knud Rasmussens Hus,Halsnæs Kommune,Region Hovedstaden,3390
Koldkrigsmuseet Regan Vest,1,56.8237383,9.801156742104741,"Koldkrigsmuseet REGAN Vest, Røde Møllevej, Røde Mølle, Oplev, Rebild Kommune, Region Nordjylland, Danmark",Danmark,Koldkrigsmuseet REGAN Vest,Rebild Kommune,Region Nordjylland,9520
Kongernes Samling,1,55.6844546,12.5924522,"Kongernes Samling Amalienborg, Amalienborg Slotsplads, Frederiksstaden, Indre By, København, Københavns Kommune, Region Hovedstaden, 1257, Danmark",Danmark,Kongernes Samling Amalienborg,Københavns Kommune,Region Hovedstaden,1257
Historie & Kunst (Thorvaldsens Museum),1,55.676533,12.578283,"2, Bertel Thorvaldsens Plads, Indre By, København, Københavns Kommune, Region Hovedstaden, 1213, Danmark",Danmark,,Københavns Kommune,Region Hovedstaden,1213
Herning Museum,1,56.1328676,8.972328029795104,"Herning Museum, Museumsgade, Herning, Herning Kommune, Region Midtjylland, 7400, Danmark",Danmark,Herning Museum,Herning Kommune,Region Midtjylland,7400
Museerne I Brønderslev Kommune,1,57.289496,9.976142,"11, Merkurvej, Brønderslev, Brønderslev Kommune, Region Nordjylland, 9700, Danmark",Danmark,,Brønderslev Kommune,Region Nordjylland,9700
H.C. Andersens Hus / Barndomshjem,1,55.394542,10.38727,"3, Munkemøllestræde, Hunderup, Odense, Odense Kommune, Region Syddanmark, 5000, Danmark",Danmark,,Odense Kommune,Region Syddanmark,5000
Muserum,1,,,,,,,,
Museum Horsens,1,55.8632766,9.863235217787945,"Horsens Museum, Sundvej, Sønder Lindskov, Horsens, Horsens Kommune, Region Midtjylland, 8700, Danmark",Danmark,Horsens Museum,Horsens Kommune,Region Midtjylland,8700
Museum Midtjylland,1,56.136266,8.963275,"20, Vestergade, Herning, Herning Kommune, Region Midtjylland, 7400, Danmark",Danmark,,Herning Kommune,Region Midtjylland,7400
Museum Nordsjælland S/I,1,55.927859,12.300821,"9, Frederiksgade, Trollesbro, Teglgårdslund, Hillerød, Hillerød Kommune, Region Hovedstaden, 3400, Danmark",Danmark,,Hillerød Kommune,Region Hovedstaden,3400
Museum Silkeborg,1,56.1686725,9.552997795957877,"Museum Silkeborg, Hovedgårdsvej, Århusbakken, Silkeborg, Silkeborg Kommune, Region Midtjylland, 8600, Danmark",Danmark,Museum Silkeborg,Silkeborg Kommune,Region Midtjylland,8600
Museum Skanderborg,1,56.0436064,9.92621168248303,"Museum Skanderborg, Banegårdspladsen, Skanderborg Bakker, Skanderborg, Skanderborg Kommune, Region Midtjylland, 8660, Danmark",Danmark,Museum Skanderborg,Skanderborg Kommune,Region Midtjylland,8660
Museum Sydøstdanmark,1,55.007153,11.910824,"1, Slotsruinen, Solvang, Vordingborg, Vordingborg Kommune, Region Sjælland, 4760, Danmark",Danmark,,Vordingborg Kommune,Region Sjælland,4760
Museum Sønderjylland,1,54.826654399999995,9.363983296646792,"Oldemorstoft Museum Sønderjylland, Bovvej, Oldemorstoft, Bov, Padborg, Aabenraa Kommune, Region Syddanmark, 6330, Danmark",Danmark,Oldemorstoft Museum Sønderjylland,Aabenraa Kommune,Region Syddanmark,6330
Museum Thy,1,56.9538,8.690583,"11, Jernbanegade, Halden, Thisted, Thisted Kommune, Region Nordjylland, 7700, Danmark",Danmark,,Thisted Kommune,Region Nordjylland,7700
Museum Thy S/I,1,56.954196,8.690389,"4, Jernbanegade, Halden, Thisted, Thisted Kommune, Region Nordjylland, 7700, Danmark",Danmark,,Thisted Kommune,Region Nordjylland,7700
Møns Museum Empiregården,1,54.987089,12.288975,"75, Storegade, Nymark, Stege, Vordingborg Kommune, Region Sjælland, 4780, Danmark",Danmark,,Vordingborg Kommune,Region Sjælland,4780
Nationalmuseet,1,55.6747103,12.574354451239845,"Nationalmuseet, Ny Vestergade, Postbyen, Indre By, København, Københavns Kommune, Region Hovedstaden, 1471, Danmark",Danmark,Nationalmuseet,Københavns Kommune,Region Hovedstaden,1471
Frederiksbergmuseerne,1,55.678377,12.527686,"5, Andebakkesti, Frederiksberg, Frederiksberg Kommune, Region Hovedstaden, 2000, Danmark",Danmark,,Frederiksberg Kommune,Region Hovedstaden,2000
Flyndersø Mølle,1,56.518481550000004,8.955232969141976,"Flyndersø Mølle, Flyndersøvej, Skive Kommune, Region Midtjylland, Danmark",Danmark,Flyndersø Mølle,Skive Kommune,Region Midtjylland,7800
Odense Bys Museer,1,55.397969,10.393819,"48, Overgade, City Campus, Odense, Odense Kommune, Region Syddanmark, 5000, Danmark",Danmark,,Odense Kommune,Region Syddanmark,5000
Ordrupgårdsamlingen,1,55.766836,12.5625,"110, Vilvordevej, Charlottenlund, Jægersborg, Gentofte Kommune, Region Hovedstaden, 2920, Danmark",Danmark,,Gentofte Kommune,Region Hovedstaden,2920
Falsters Minder,1,54.7677386,11.8667129,"Falsters Minder, Færgestræde, Nykøbing Falster, Guldborgsund Kommune, Region Sjælland, 4800, Danmark",Danmark,Falsters Minder,Guldborgsund Kommune,Region Sjælland,4800
Romu,1,55.64229,12.083798,"3, Sankt Ols Stræde, Sankt Agnes Huse, Roskilde, Roskilde Kommune, Region Sjælland, 4000, Danmark",Danmark,,Roskilde Kommune,Region Sjælland,4000
Skibene I Holbæk,1,55.721516,11.712603,"23, Kanalstræde, Jernstøberiet, Holbæk, Holbæk Kommune, Region Sjælland, 4300, Danmark",Danmark,,Holbæk Kommune,Region Sjælland,4300
De Kulturhistoriske Museer I Holstebro Kommune,1,56.353988,8.620519,"2B, Museumsvej, Sønderland, Holstebro, Holstebro Kommune, Region Midtjylland, 7500, Danmark",Danmark,,Holstebro Kommune,Region Midtjylland,7500
Stiftmuseet Maribo,1,54.776291,11.501978,"11, Banegårdspladsen, Maribo, Lolland Kommune, Region Sjælland, 4930, Danmark",Danmark,,Lolland Kommune,Region Sjælland,4930
Strandfogedgården Rubjerg,1,57.437562,9.7779,"2, Langelinie, Løkken, Hjørring Kommune, Region Nordjylland, 9480, Danmark",Danmark,,Hjørring Kommune,Region Nordjylland,9480
Østfyns Museer,1,55.449949,10.658957,"Østfyns Museer Høkeren, Trollegade, Feddet, Kerteminde, Kerteminde Kommune, Region Syddanmark, 5300, Danmark",Danmark,Østfyns Museer Høkeren,Kerteminde Kommune,Region Syddanmark,5300
